{"fetched_at":"2026-03-28T16:33:49Z","count":6709,"tles":[{"name":"TANDEM-X","line1":"1 36605U 10030A   26086.51505668  .00000984  00000+0  50024-4 0  9997","line2":"2 36605  97.4466  95.3837 0001681  88.6365 271.5062 15.19152112874241","category":"Other"}]}